email,name,street_address,city,zip_code,state,position
augue@orci.ca,Ebony Rosa,101-9284 Erat Rd.,Aurora,18197,Illinois,ADVISER
vitae@odioNam.com,Madeline Moses,Ap #165-9058 Egestas. Ave,Grand Island,81103,Nebraska,ADVISER
Phasellus@libero.com,Desiree Zamora,"P.O. Box 524, 6182 Suspendisse Avenue",Cedar Rapids,70759,Iowa,OTHER
pede.malesuada.vel@mus.co.uk,Chastity Page,"P.O. Box 875, 3638 Duis Rd.",Norfolk,60018,Virginia,OE ADVISER
ad@euenimEtiam.net,Nicholas Sheppard,Ap #695-7314 Lobortis Rd.,Memphis,86555,Tennessee,ADVISER
ac.mi.eleifend@Nunc.com,Britanney Mooney,4056 Malesuada Street,Athens,31854,Georgia,OE ADVISER
et@ac.net,Virginia Davis,656-6791 Torquent Ave,Auburn,38414,Maine,ADVISER
enim@Curabitur.org,Zephr Lewis,728-1550 Penatibus Street,Burlington,90595,Vermont,OTHER
non.arcu@elementumpurusaccumsan.edu,Ariel Weaver,"Ap #952-9894 Montes, St.",Boston,99493,Massachusetts,OTHER
ornare@faucibuslectus.co.uk,Lavinia Stevenson,"P.O. Box 877, 267 Orci, Rd.",Great Falls,74962,Montana,ADVISER
turpis@auctorvelit.net,Cameran Pickett,Ap #667-644 Mauris Rd.,Tallahassee,13473,Florida,ADVISER
turpis@tacitisociosqu.org,Keelie Ross,Ap #242-1681 Tempus Road,Cheyenne,73685,Wyoming,ADVISER
Integer.aliquam@dolor.com,Felix Buckner,Ap #781-223 Libero Rd.,Flint,50807,Michigan,ADVISER
pellentesque.Sed.dictum@molestietellus.net,Ariana Barrera,781-4853 Justo Av.,Memphis,29653,Tennessee,ADVISER
augue.porttitor.interdum@disparturientmontes.org,Tad Maddox,Ap #751-9521 Id St.,Davenport,80175,Iowa,OE ADVISER
gravida.Aliquam@sociosqu.com,Zelda Freeman,"Ap #987-9428 Leo, Ave",Owensboro,70684,Kentucky,OTHER
tincidunt.dui.augue@natoquepenatibus.com,Hector Santos,1005 Erat Rd.,Colorado Springs,24299,Colorado,OE ADVISER
lacus.Quisque.imperdiet@necmollis.ca,Hadassah Contreras,"520 Magna, Rd.",Broken Arrow,71808,Oklahoma,OTHER
at@adipiscing.com,Kelly Morton,"P.O. Box 562, 8217 Arcu. Road",Glendale,85385,Arizona,OTHER
tincidunt.adipiscing@fringillapurus.org,Gail Ramsey,363-7157 Purus Rd.,Bowling Green,32546,Kentucky,OE ADVISER
eu@dignissim.com,Britanni Mullins,"P.O. Box 464, 9887 Nisi Road",Bellevue,83505,Nebraska,OE ADVISER
sem@facilisis.co.uk,Medge Parks,853-1147 Arcu St.,Norman,87370,Oklahoma,OTHER
a@massa.com,Stephanie Walton,"Ap #790-3128 Elementum, Av.",Norderstedt,80024,Saarland,OE ADVISER
Aenean.gravida@sitametnulla.com,Teegan Tucker,7269 Arcu Rd.,Berlin,56793,Berlin,ADVISER
in.felis.Nulla@Seddictum.co.uk,Audra Higgins,"P.O. Box 792, 8295 Ante St.",Berlin,51152,Berlin,OE ADVISER
leo.Morbi.neque@dolor.org,Clinton Figueroa,336-214 Amet St.,Hamburg,9765,Hamburg,OE ADVISER
Nunc@vestibulummassa.ca,Clare Bradley,"P.O. Box 437, 3704 Vitae St.",Neu-Isenburg,55943,Hesse,OTHER
placerat.orci@etarcuimperdiet.edu,Candice Fowler,Ap #926-4191 Elit Road,Hamburg,78854,Hamburg,OTHER
arcu@arcuetpede.edu,Carla Heath,"P.O. Box 340, 5114 Non, Rd.",Bottrop,24441,North Rhine-Westphalia,OTHER
tellus.eu.augue@maurissapiencursus.org,Faith Dennis,Ap #403-952 Libero Road,Hamburg,30039,Hamburg,ADVISER
tincidunt@tempuseu.ca,Aaron Little,"P.O. Box 281, 800 Arcu. Av.",Berlin,97739,Berlin,OTHER
in.consequat.enim@luctusCurabitur.org,Marvin Miranda,"P.O. Box 723, 3468 Dictum St.",Berlin,74094,Berlin,OTHER
quis@Sednullaante.com,Rachel Atkinson,8593 Lacinia St.,Friedberg,61459,Hesse,OE ADVISER
Cras.vehicula.aliquet@vitaealiquam.com,Lillian Ball,305-9660 Imperdiet Rd.,Strausberg,17011,Brandenburg,ADVISER
volutpat.Nulla.dignissim@inceptoshymenaeos.net,Timon Nelson,Ap #187-5596 Quisque Rd.,Bremen,87624,Bremen,ADVISER
ullamcorper.eu.euismod@posuere.net,Asher Foley,Ap #602-2293 Velit Av.,Berlin,75470,Berlin,ADVISER
eu.nibh.vulputate@Phasellusfermentumconvallis.co.uk,Iris Fitzpatrick,4057 Ac Avenue,Halberstadt,39779,Saxony-Anhalt,ADVISER
nec.orci.Donec@Nullam.net,Germane Mccarty,"P.O. Box 278, 3921 Eu Road",Bremen,23052,Bremen,OTHER
rhoncus@necorci.co.uk,Ivan Irwin,7218 Eu Street,Sindelfingen,3786,Baden,OTHER
felis@Intinciduntcongue.org,Kim Velasquez,Ap #556-8551 Mus. Rd.,Hamburg,91489,Hamburg,ADVISER
id.enim@orci.ca,Byron Curtis,5012 Vitae St.,Bremen,28555,Bremen,OE ADVISER
Phasellus.elit@nibhAliquamornare.net,Joy Moore,"5243 Lorem, Road",Hamburg,49697,Hamburg,OTHER
Mauris.nulla@magna.com,Quynn Sharpe,"P.O. Box 257, 9341 Nulla. Rd.",Hamburg,98486,Hamburg,OTHER
orci.Donec@lorem.edu,Candice Rhodes,"P.O. Box 635, 3826 Morbi St.",Reinbek,15767,Saarland,OE ADVISER
placerat@hendreritidante.org,Martin Estes,143 Donec Av.,Freiberg,60832,Saxony,OE ADVISER
Quisque.ornare.tortor@egestas.ca,Valentine Morton,"1586 Eu, Road",Bremen,26282,Bremen,ADVISER